[{"OBJECT_NAME":"SCS-01 B","OBJECT_ID":"2025-100B","EPOCH":"2026-03-09T21:49:11.508672","MEAN_MOTION":15.3317485,"ECCENTRICITY":0.00088698,"INCLINATION":97.3706,"RA_OF_ASC_NODE":145.9041,"ARG_OF_PERICENTER":288.6157,"MEAN_ANOMALY":71.4122,"EPHEMERIS_TYPE":0,"CLASSIFICATION_TYPE":"U","NORAD_CAT_ID":63983,"ELEMENT_SET_NO":999,"REV_AT_EPOCH":4567,"BSTAR":0.00098809397,"MEAN_MOTION_DOT":0.00031724,"MEAN_MOTION_DDOT":0},{"OBJECT_NAME":"STARLINK-35081","OBJECT_ID":"2025-240C","EPOCH":"2026-03-09T23:12:45.392256","MEAN_MOTION":15.30212281,"ECCENTRICITY":0.00023754,"INCLINATION":53.1616,"RA_OF_ASC_NODE":61.3252,"ARG_OF_PERICENTER":79.1326,"MEAN_ANOMALY":280.9942,"EPHEMERIS_TYPE":0,"CLASSIFICATION_TYPE":"U","NORAD_CAT_ID":66148,"ELEMENT_SET_NO":999,"REV_AT_EPOCH":2203,"BSTAR":0.00086239339,"MEAN_MOTION_DOT":0.0002528,"MEAN_MOTION_DDOT":0}]
